{
  "type" : "FeatureCollection",
  "features" : [{"type":"Feature","id":0,"geometry":{"type":"Polygon","coordinates":[[[-58.566161174364105,-34.282999125339174],[-58.557578105512533,-34.290941670599665],[-58.540411967818386,-34.303137689053621],[-58.535605449263663,-34.315048369614154],[-58.527365703173707,-34.337593049625859],[-58.523245830124232,-34.347798116913758],[-58.525992412154224,-34.354884238484914],[-58.523589152876859,-34.369338069027378],[-58.52530576664897,-34.383847427949974],[-58.520842570846874,-34.398296261335197],[-58.524275798382114,-34.40594463394212],[-58.53594877201629,-34.41472523657545],[-58.540755290571013,-34.425204104001878],[-58.539381999560511,-34.435681658109324],[-58.52530576664897,-34.445025395496081],[-58.51054288823218,-34.446724144561969],[-58.505165657194432,-34.447787111389758],[-58.497836010443578,-34.461763640548426],[-58.491776577246448,-34.46419386352261],[-58.479416958107016,-34.477496752221136],[-58.45641433359129,-34.476364674027984],[-58.405259243261462,-34.46560916523552],[-58.383286587012591,-34.44267832337836],[-58.305352321870195,-34.381498638370211],[-58.218148342379955,-34.313185175482367],[-58.15154372812809,-34.266666191707849],[-58.186562649021646,-34.216261935795288],[-58.207505337012641,-34.179062724628487],[-58.223746217743553,-34.141413782757354],[-58.242972291962438,-34.097927228736097],[-58.287428730010568,-34.047875831246806],[-58.364333026886108,-34.016578694454559],[-58.395918720244424,-34.003771993176635],[-58.428223074094532,-34.025843708214957],[-58.432342947144001,-34.067945301274733],[-58.461525381224959,-34.077614335702847],[-58.478691518919106,-34.085159939082942],[-58.487961233275925,-34.09283681959964],[-58.5054706937227,-34.117000230812103],[-58.528395671431582,-34.146394834126241],[-58.533545512738925,-34.154634376307612],[-58.536292094768918,-34.163157194766796],[-58.531828898975803,-34.204668166979033],[-58.53045560795632,-34.220283412374187],[-58.534918803758416,-34.239585533185988],[-58.543501872600999,-34.255478075070549],[-58.566161174364105,-34.282999125339174]]]},"properties":{"FID":0,"name":"Study_Area_ROI"}}]
}
