{"type":"FeatureCollection","features":[{"type":"Feature","id":1,"geometry":{"type":"Point","coordinates":[-58.557298357033517,-34.517965307952579]},"properties":{"OBJECTID":1,"municipio_":6756,"municipi_1":"San Isidro","establecim":7863,"establec_1":"CENTRO DE ADULTOS Nº704/02","region_edu":"Región VI","clave":"0096DC0704","cueanexo":61207501,"modalidad":"Educación de Jóvenes y Adultos","nivel":"Nivel Primario","direccion":"AVDA ROLON - 1008","telefono":"11-4196-0003","rpv":"76554","email":"mirta.rueda1@gmail.com","sector":"Estatal","dependenci":"Oficial","tipo_organ":"CENTRO DE EDUCACIÓN PRIMARIA DE ADULTOS","area":"CONURBANO","ambito":"Urbano","desfavorab":0,"subvencion":"Oficial","sede_axo_e":"EXTENSION","categoria":"S/Datos","depend_fun":"Dirección de Educación de Jóvenes, Adultos y Adultos Mayores","cui":"609602175","periodo":"Anual 2026","matricula":28,"varones":7,"mujeres":21,"secciones":2,"turnos":" ","cue":612075,"anexo":1,"nro_escuel":704}},{"type":"Feature","id":2,"geometry":{"type":"Point","coordinates":[-58.544186543773947,-34.469932019247267]},"properties":{"OBJECTID":2,"municipio_":6756,"municipi_1":"San Isidro","establecim":7864,"establec_1":"CENTRO DE ADULTOS Nº706/03","region_edu":"Región VI","clave":"0096DC0706","cueanexo":61211101,"modalidad":"Educación de Jóvenes y Adultos","nivel":"Nivel Primario","direccion":"JUAN CLARK - 1807","telefono":"11-4792-6166","rpv":" ","email":"epa703sanisidro@abc.gob.ar","sector":"Estatal","dependenci":"Oficial","tipo_organ":"CENTRO DE EDUCACIÓN PRIMARIA DE ADULTOS","area":"CONURBANO","ambito":"Urbano","desfavorab":0,"subvencion":"Oficial","sede_axo_e":"EXTENSION","categoria":"S/Datos","depend_fun":"Dirección de Educación de Jóvenes, Adultos y Adultos Mayores","cui":"609602326","periodo":"Anual 2026","matricula":51,"varones":11,"mujeres":40,"secciones":4,"turnos":" ","cue":612111,"anexo":1,"nro_escuel":706}},{"type":"Feature","id":3,"geometry":{"type":"Point","coordinates":[-58.577286794050281,-34.495413515321445]},"properties":{"OBJECTID":3,"municipio_":6756,"municipi_1":"San Isidro","establecim":7865,"establec_1":"CENTRO DE ADULTOS Nº707/01","region_edu":"Región VI","clave":"0096DC0707","cueanexo":61230701,"modalidad":"Educación de Jóvenes y Adultos","nivel":"Nivel Primario","direccion":"BETBEDER - 1708","telefono":"11-3153-5928","rpv":"76555","email":"epa701sanisidro@abc.gob.ar","sector":"Estatal","dependenci":"Oficial","tipo_organ":"CENTRO DE EDUCACIÓN PRIMARIA DE ADULTOS","area":"CONURBANO","ambito":"Urbano","desfavorab":0,"subvencion":"Oficial","sede_axo_e":"EXTENSION","categoria":"S/Datos","depend_fun":"Dirección de Educación de Jóvenes, Adultos y Adultos Mayores","cui":"609602201","periodo":"Anual 2026","matricula":10,"varones":3,"mujeres":7,"secciones":1,"turnos":" ","cue":612307,"anexo":1,"nro_escuel":707}},{"type":"Feature","id":4,"geometry":{"type":"Point","coordinates":[-58.577231537905107,-34.495451490993446]},"properties":{"OBJECTID":4,"municipio_":6756,"municipi_1":"San Isidro","establecim":7866,"establec_1":"CENTRO DE ADULTOS Nº708/01","region_edu":"Región VI","clave":"0096DC0708","cueanexo":61230702,"modalidad":"Educación de Jóvenes y Adultos","nivel":"Nivel Primario","direccion":"BETBEDER - 1708","telefono":"11-4587-4000","rpv":" ","email":"odc0960708@abc.gov.ar","sector":"Estatal","dependenci":"Oficial","tipo_organ":"CENTRO DE EDUCACIÓN PRIMARIA DE ADULTOS","area":"CONURBANO","ambito":"Urbano","desfavorab":0,"subvencion":"Oficial","sede_axo_e":"EXTENSION","categoria":"S/Datos","depend_fun":"Dirección de Educación de Jóvenes, Adultos y Adultos Mayores","cui":"609600139","periodo":"Anual 2026","matricula":20,"varones":0,"mujeres":20,"secciones":1,"turnos":" ","cue":612307,"anexo":2,"nro_escuel":708}},{"type":"Feature","id":5,"geometry":{"type":"Point","coordinates":[-58.547029645201917,-34.464719690761058]},"properties":{"OBJECTID":5,"municipio_":6756,"municipi_1":"San Isidro","establecim":7867,"establec_1":"CENTRO DE ADULTOS Nº709/03","region_edu":"Región VI","clave":"0096DC0709","cueanexo":61211102,"modalidad":"Educación de Jóvenes y Adultos","nivel":"Nivel Primario","direccion":"PADRE ACEVEDO Y JUNCAL - 88","telefono":"11-4792-6166","rpv":" ","email":"epa703sanisidro@abc.gob.ar","sector":"Estatal","dependenci":"Oficial","tipo_organ":"CENTRO DE EDUCACIÓN PRIMARIA DE ADULTOS","area":"CONURBANO","ambito":"Urbano","desfavorab":0,"subvencion":"Oficial","sede_axo_e":"EXTENSION","categoria":"S/Datos","depend_fun":"Dirección de Educación de Jóvenes, Adultos y Adultos Mayores","cui":"609600141","periodo":"Anual 2026","matricula":14,"varones":3,"mujeres":11,"secciones":1,"turnos":" ","cue":612111,"anexo":2,"nro_escuel":709}},{"type":"Feature","id":6,"geometry":{"type":"Point","coordinates":[-58.566914295957929,-34.512208557778649]},"properties":{"OBJECTID":6,"municipio_":6756,"municipi_1":"San Isidro","establecim":7868,"establec_1":"CENTRO DE ADULTOS Nº710/02","region_edu":"Región VI","clave":"0096DC0710","cueanexo":61207502,"modalidad":"Educación de Jóvenes y Adultos","nivel":"Nivel Primario","direccion":"LOS CEIBOS - 55","telefono":"11-4196-0003","rpv":" ","email":"mirta.rueda1@gmail.com","sector":"Estatal","dependenci":"Oficial","tipo_organ":"CENTRO DE EDUCACIÓN PRIMARIA DE ADULTOS","area":"CONURBANO","ambito":"Urbano","desfavorab":0,"subvencion":"Oficial","sede_axo_e":"EXTENSION","categoria":"S/Datos","depend_fun":"Dirección de Educación de Jóvenes, Adultos y Adultos Mayores","cui":"609600037","periodo":"Anual 2026","matricula":28,"varones":5,"mujeres":23,"secciones":2,"turnos":" ","cue":612075,"anexo":2,"nro_escuel":710}},{"type":"Feature","id":7,"geometry":{"type":"Point","coordinates":[-58.55370966187138,-34.503057103402568]},"properties":{"OBJECTID":7,"municipio_":6756,"municipi_1":"San Isidro","establecim":7869,"establec_1":"CENTRO DE ADULTOS Nº712/02","region_edu":"Región VI","clave":"0096DC0712","cueanexo":61207503,"modalidad":"Educación de Jóvenes y Adultos","nivel":"Nivel Primario","direccion":"ROLOM - 1008","telefono":"11-15-4196-0003","rpv":"76556","email":"mirta.rueda1@gmail.com","sector":"Estatal","dependenci":"Oficial","tipo_organ":"CENTRO DE EDUCACIÓN PRIMARIA DE ADULTOS","area":"CONURBANO","ambito":"Urbano","desfavorab":0,"subvencion":"Oficial","sede_axo_e":"EXTENSION","categoria":"S/Datos","depend_fun":"Dirección de Educación de Jóvenes, Adultos y Adultos Mayores","cui":"609600160","periodo":"Anual 2026","matricula":32,"varones":10,"mujeres":22,"secciones":2,"turnos":" ","cue":612075,"anexo":3,"nro_escuel":712}},{"type":"Feature","id":8,"geometry":{"type":"Point","coordinates":[-58.53212379687568,-34.464771701252971]},"properties":{"OBJECTID":8,"municipio_":6756,"municipi_1":"San Isidro","establecim":7870,"establec_1":"CENTRO DE ADULTOS Nº713/03","region_edu":"Región VI","clave":"0096DC0713","cueanexo":61211103,"modalidad":"Educación de Jóvenes y Adultos","nivel":"Nivel Primario","direccion":"POSADAS - 606","telefono":"11-4792-6166","rpv":" ","email":"epa703sanisidro@abc.gob.ar","sector":"Estatal","dependenci":"Oficial","tipo_organ":"CENTRO DE EDUCACIÓN PRIMARIA DE ADULTOS","area":"CONURBANO","ambito":"Urbano","desfavorab":0,"subvencion":"Oficial","sede_axo_e":"EXTENSION","categoria":"S/Datos","depend_fun":"Dirección de Educación de Jóvenes, Adultos y Adultos Mayores","cui":"609600670","periodo":"Anual 2026","matricula":38,"varones":10,"mujeres":28,"secciones":3,"turnos":" ","cue":612111,"anexo":3,"nro_escuel":713}},{"type":"Feature","id":9,"geometry":{"type":"Point","coordinates":[-58.584455182160866,-34.490567522972754]},"properties":{"OBJECTID":9,"municipio_":6756,"municipi_1":"San Isidro","establecim":7871,"establec_1":"ESCUELA DE ADULTOS Nº701 \"PEDRO BONIFACIO PALACIOS\"","region_edu":"Región VI","clave":"0096DE0701","cueanexo":61230700,"modalidad":"Educación de Jóvenes y Adultos","nivel":"Nivel Primario","direccion":"RUTA PANAMERICANA Y CAMINO REAL MORON - S/N","telefono":"11-4710-1670","rpv":" ","email":"ode0960701@abc.gov.ar","sector":"Estatal","dependenci":"Oficial","tipo_organ":"ESCUELA DE EDUCACIÓN PRIMARIA DE ADULTOS","area":"CONURBANO","ambito":"Urbano","desfavorab":0,"subvencion":"Oficial","sede_axo_e":"SEDE","categoria":"Segunda","depend_fun":"Dirección de Educación de Jóvenes, Adultos y Adultos Mayores","cui":"609600187","periodo":"Anual 2026","matricula":42,"varones":6,"mujeres":36,"secciones":2,"turnos":" ","cue":612307,"anexo":0,"nro_escuel":701}},{"type":"Feature","id":10,"geometry":{"type":"Point","coordinates":[-58.566334701785024,-34.516312356729827]},"properties":{"OBJECTID":10,"municipio_":6756,"municipi_1":"San Isidro","establecim":7872,"establec_1":"ESCUELA DE ADULTOS Nº702 \"JUANA AZURDUY\"","region_edu":"Región VI","clave":"0096DE0702","cueanexo":61207500,"modalidad":"Educación de Jóvenes y Adultos","nivel":"Nivel Primario","direccion":"GORRITI - 2818","telefono":"11-4196-0003","rpv":" ","email":"mirta.rueda1@gmail.com","sector":"Estatal","dependenci":"Oficial","tipo_organ":"ESCUELA DE EDUCACIÓN PRIMARIA DE ADULTOS","area":"CONURBANO","ambito":"Urbano","desfavorab":0,"subvencion":"Oficial","sede_axo_e":"SEDE","categoria":"Segunda","depend_fun":"Dirección de Educación de Jóvenes, Adultos y Adultos Mayores","cui":"609600691","periodo":"Anual 2026","matricula":51,"varones":19,"mujeres":32,"secciones":4,"turnos":" ","cue":612075,"anexo":0,"nro_escuel":702}},{"type":"Feature","id":11,"geometry":{"type":"Point","coordinates":[-58.498818860002359,-34.492019044043616]},"properties":{"OBJECTID":11,"municipio_":6756,"municipi_1":"San Isidro","establecim":7873,"establec_1":"ESCUELA DE ADULTOS Nº703 \"VICTORIA OCAMPO\"","region_edu":"Región VI","clave":"0096DE0703","cueanexo":61211100,"modalidad":"Educación de Jóvenes y Adultos","nivel":"Nivel Primario","direccion":"AV. SANTA FE - 2304","telefono":"11-4792-6166","rpv":" ","email":"epa703si@gmail.com","sector":"Estatal","dependenci":"Oficial","tipo_organ":"ESCUELA DE EDUCACIÓN PRIMARIA DE ADULTOS","area":"CONURBANO","ambito":"Urbano","desfavorab":0,"subvencion":"Oficial","sede_axo_e":"SEDE","categoria":"Primera","depend_fun":"Dirección de Educación de Jóvenes, Adultos y Adultos Mayores","cui":"609600207","periodo":"Anual 2026","matricula":67,"varones":22,"mujeres":45,"secciones":5,"turnos":" ","cue":612111,"anexo":0,"nro_escuel":703}},{"type":"Feature","id":12,"geometry":{"type":"Point","coordinates":[-58.564778379118877,-34.507393020971108]},"properties":{"OBJECTID":12,"municipio_":6756,"municipi_1":"San Isidro","establecim":7874,"establec_1":"ESCUELA PRIMARIA DE ADULTOS Nº 714 \"HÉROES DE MALVINAS\"","region_edu":"Región VI","clave":"0096DE0714","cueanexo":61366800,"modalidad":"Educación de Jóvenes y Adultos","nivel":"Nivel Primario","direccion":"AV. AVELINO ROLÓN - 1942","telefono":"11-5885-8029","rpv":" ","email":"epa714sanisidro@abc.gob.ar","sector":"Estatal","dependenci":"Oficial","tipo_organ":"ESCUELA DE EDUCACIÓN PRIMARIA DE ADULTOS","area":"CONURBANO","ambito":"Urbano","desfavorab":0,"subvencion":"Oficial","sede_axo_e":"SEDE","categoria":"Tercera","depend_fun":"Dirección de Educación de Jóvenes, Adultos y Adultos Mayores","cui":"609600211","periodo":"Anual 2026","matricula":46,"varones":9,"mujeres":37,"secciones":4,"turnos":" ","cue":613668,"anexo":0,"nro_escuel":714}},{"type":"Feature","id":13,"geometry":{"type":"Point","coordinates":[-58.504360059768885,-34.48461655880709]},"properties":{"OBJECTID":13,"municipio_":6756,"municipi_1":"San Isidro","establecim":7875,"establec_1":"ESCUELA ESPECIAL Nº501 \"FRAGATA PRESIDENTE SARMIENTO\"","region_edu":"Región VI","clave":"0096EE0501","cueanexo":61211200,"modalidad":"Educación Especial","nivel":"Nivel Primario","direccion":"CUYO - 38","telefono":"11-4792-8861","rpv":"76548","email":"ee501.sisidro@gmail.com","sector":"Estatal","dependenci":"Oficial","tipo_organ":"ESCUELA DE EDUCACIÓN ESPECIAL","area":"CONURBANO","ambito":"Urbano","desfavorab":0,"subvencion":"Oficial","sede_axo_e":"SEDE","categoria":"Primera","depend_fun":"Dirección de Educación Especial","cui":"609600305","periodo":"Anual 2026","matricula":115,"varones":76,"mujeres":39,"secciones":0,"turnos":" ","cue":612112,"anexo":0,"nro_escuel":501}},{"type":"Feature","id":14,"geometry":{"type":"Point","coordinates":[-58.585672299437022,-34.490037655013737]},"properties":{"OBJECTID":14,"municipio_":6756,"municipi_1":"San Isidro","establecim":7876,"establec_1":"ESCUELA ESPECIAL Nº502 \"WILLIAM DEMANT\"","region_edu":"Región VI","clave":"0096EE0502","cueanexo":61230900,"modalidad":"Educación Especial","nivel":"Nivel Primario","direccion":"CAMINO REAL MORON Y RUTA PANAMERICANA - S/N","telefono":"11-4737-7718","rpv":"76579","email":"especial502sanisidro@abc.gob.ar","sector":"Estatal","dependenci":"Oficial","tipo_organ":"ESCUELA DE EDUCACIÓN ESPECIAL","area":"CONURBANO","ambito":"Urbano","desfavorab":0,"subvencion":"Oficial","sede_axo_e":"SEDE","categoria":"Primera","depend_fun":"Dirección de Educación Especial","cui":"609600346","periodo":"Anual 2026","matricula":85,"varones":53,"mujeres":32,"secciones":0,"turnos":" ","cue":612309,"anexo":0,"nro_escuel":502}},{"type":"Feature","id":15,"geometry":{"type":"Point","coordinates":[-58.532320955247826,-34.471053213934624]},"properties":{"OBJECTID":15,"municipio_":6756,"municipi_1":"San Isidro","establecim":7877,"establec_1":"ESCUELA ESPECIAL Nº503","region_edu":"Región VI","clave":"0096EE0503","cueanexo":61229600,"modalidad":"Educación Especial","nivel":"Nivel Primario","direccion":"NEUQUEN E/ AVELLANEDA Y TOMKINSON - 1115","telefono":"11-4742-0695","rpv":" ","email":"especial503sanisidro@abc.gob.ar","sector":"Estatal","dependenci":"Oficial","tipo_organ":"ESCUELA DE EDUCACIÓN ESPECIAL","area":"CONURBANO","ambito":"Urbano","desfavorab":0,"subvencion":"Oficial","sede_axo_e":"SEDE","categoria":"Primera","depend_fun":"Dirección de Educación Especial","cui":"609600314","periodo":"Anual 2026","matricula":253,"varones":199,"mujeres":54,"secciones":0,"turnos":" ","cue":612296,"anexo":0,"nro_escuel":503}},{"type":"Feature","id":16,"geometry":{"type":"Point","coordinates":[-58.550642642743753,-34.494807035915926]},"properties":{"OBJECTID":16,"municipio_":6756,"municipi_1":"San Isidro","establecim":7878,"establec_1":"ESCUELA ESPECIAL Nº504 \"EDUARDO JORGE STOYANOFF\"","region_edu":"Región VI","clave":"0096EE0504","cueanexo":61220400,"modalidad":"Educación Especial","nivel":"Nivel Primario","direccion":"FONDO DE LA LEGUA - 49","telefono":"11-4766-0869","rpv":"76537","email":"ee504.sisidro@gmail.com","sector":"Estatal","dependenci":"Oficial","tipo_organ":"ESCUELA DE EDUCACIÓN ESPECIAL","area":"CONURBANO","ambito":"Urbano","desfavorab":0,"subvencion":"Oficial","sede_axo_e":"SEDE","categoria":"Primera","depend_fun":"Dirección de Educación Especial","cui":"609600322","periodo":"Anual 2026","matricula":62,"varones":36,"mujeres":26,"secciones":0,"turnos":" ","cue":612204,"anexo":0,"nro_escuel":504}},{"type":"Feature","id":17,"geometry":{"type":"Point","coordinates":[-58.546533588154546,-34.477234112264398]},"properties":{"OBJECTID":17,"municipio_":6756,"municipi_1":"San Isidro","establecim":7879,"establec_1":"ESCUELA ESPECIAL Nº505 \"GENERAL MANUEL BELGRANO\"","region_edu":"Región VI","clave":"0096EE0505","cueanexo":61306600,"modalidad":"Educación Especial","nivel":"Nivel Primario","direccion":"AV. INTENDENTE TOMKINSON - 2300","telefono":"11-3514-8074","rpv":"76520","email":"especial505sanisidro@abc.gob.ar","sector":"Estatal","dependenci":"Oficial","tipo_organ":"ESCUELA DE EDUCACIÓN ESPECIAL","area":"CONURBANO","ambito":"Urbano","desfavorab":0,"subvencion":"Oficial","sede_axo_e":"SEDE","categoria":"Primera","depend_fun":"Dirección de Educación Especial","cui":"609602238","periodo":"Anual 2026","matricula":38,"varones":26,"mujeres":12,"secciones":0,"turnos":" ","cue":613066,"anexo":0,"nro_escuel":505}},{"type":"Feature","id":18,"geometry":{"type":"Point","coordinates":[-58.512948053809623,-34.470055954818406]},"properties":{"OBJECTID":18,"municipio_":6756,"municipi_1":"San Isidro","establecim":7920,"establec_1":"ESCUELA DE EDUCACIÓN PRIMARIA Nº1 \"DR. COSME BECCAR\"","region_edu":"Región VI","clave":"0096PP0001","cueanexo":61229000,"modalidad":"Educación Común","nivel":"Nivel Primario","direccion":"RIVADAVIA - 349","telefono":"11-4743-0415","rpv":"76511","email":"primaria1sanisidro@abc.gob.ar","sector":"Estatal","dependenci":"Oficial","tipo_organ":"ESCUELA DE EDUCACIÓN PRIMARIA","area":"CONURBANO","ambito":"Urbano","desfavorab":0,"subvencion":"Oficial","sede_axo_e":"SEDE","categoria":"Primera","depend_fun":"Dirección Provincial de Educación Primaria","cui":"609600367","periodo":"Anual 2026","matricula":299,"varones":162,"mujeres":137,"secciones":19,"turnos":" ","cue":612290,"anexo":0,"nro_escuel":1}},{"type":"Feature","id":19,"geometry":{"type":"Point","coordinates":[-58.520684679454348,-34.470277817567194]},"properties":{"OBJECTID":19,"municipio_":6756,"municipi_1":"San Isidro","establecim":7921,"establec_1":"ESCUELA DE EDUCACIÓN PRIMARIA Nº2 \"LIBERTADOR GENERAL SAN MARTIN\"","region_edu":"Región VI","clave":"0096PP0002","cueanexo":61220800,"modalidad":"Educación Común","nivel":"Nivel Primario","direccion":"DON BOSCO E/ GARIBALDI Y ALBERTI - 210","telefono":"11-4743-1392","rpv":"76516","email":"primaria2sanisidro@abc.gob.ar","sector":"Estatal","dependenci":"Oficial","tipo_organ":"ESCUELA DE EDUCACIÓN PRIMARIA","area":"CONURBANO","ambito":"Urbano","desfavorab":0,"subvencion":"Oficial","sede_axo_e":"SEDE","categoria":"Segunda","depend_fun":"Dirección Provincial de Educación Primaria","cui":"609600351","periodo":"Anual 2026","matricula":145,"varones":65,"mujeres":80,"secciones":7,"turnos":" ","cue":612208,"anexo":0,"nro_escuel":2}},{"type":"Feature","id":20,"geometry":{"type":"Point","coordinates":[-58.521808409330561,-34.457588689266572]},"properties":{"OBJECTID":20,"municipio_":6756,"municipi_1":"San Isidro","establecim":7922,"establec_1":"ESCUELA DE EDUCACIÓN PRIMARIA Nº3 \"CARLOS S. VERNET\"","region_edu":"Región VI","clave":"0096PP0003","cueanexo":61227400,"modalidad":"Educación Común","nivel":"Nivel Primario","direccion":"LIBERTADOR - 17592","telefono":"11-4742-7065","rpv":"76518","email":"primaria3sanisidro@abc.gob.ar","sector":"Estatal","dependenci":"Oficial","tipo_organ":"ESCUELA DE EDUCACIÓN PRIMARIA","area":"CONURBANO","ambito":"Urbano","desfavorab":0,"subvencion":"Oficial","sede_axo_e":"SEDE","categoria":"Primera","depend_fun":"Dirección Provincial de Educación Primaria","cui":"609600658","periodo":"Anual 2026","matricula":296,"varones":147,"mujeres":149,"secciones":23,"turnos":" ","cue":612274,"anexo":0,"nro_escuel":3}},{"type":"Feature","id":21,"geometry":{"type":"Point","coordinates":[-58.497087177631101,-34.481573501216076]},"properties":{"OBJECTID":21,"municipio_":6756,"municipi_1":"San Isidro","establecim":7923,"establec_1":"ESCUELA DE EDUCACIÓN PRIMARIA Nº4 \"FRANCISCO MARQUEZ\"","region_edu":"Región VI","clave":"0096PP0004","cueanexo":61207600,"modalidad":"Educación Común","nivel":"Nivel Primario","direccion":"VIEYTES E/ GUTIERREZ Y GOYENA - 650","telefono":"11-4792-6000","rpv":"76545","email":"ep4martinez@gmail.com","sector":"Estatal","dependenci":"Oficial","tipo_organ":"ESCUELA DE EDUCACIÓN PRIMARIA","area":"CONURBANO","ambito":"Urbano","desfavorab":0,"subvencion":"Oficial","sede_axo_e":"SEDE","categoria":"Primera","depend_fun":"Dirección Provincial de Educación Primaria","cui":"609600662","periodo":"Anual 2026","matricula":243,"varones":135,"mujeres":108,"secciones":16,"turnos":" ","cue":612076,"anexo":0,"nro_escuel":4}},{"type":"Feature","id":22,"geometry":{"type":"Point","coordinates":[-58.532289272132175,-34.464718876874599]},"properties":{"OBJECTID":22,"municipio_":6756,"municipi_1":"San Isidro","establecim":7924,"establec_1":"ESCUELA DE EDUCACIÓN PRIMARIA Nº5 \"DOCTOR JUAN JOSÉ DÍAZ\"","region_edu":"Región VI","clave":"0096PP0005","cueanexo":61207300,"modalidad":"Educación Común","nivel":"Nivel Primario","direccion":"GERVASIO POSADAS - 606","telefono":"11-4743-1353","rpv":"76515","email":"primaria5sanisidro@abc.gob.ar","sector":"Estatal","dependenci":"Oficial","tipo_organ":"ESCUELA DE EDUCACIÓN PRIMARIA","area":"CONURBANO","ambito":"Urbano","desfavorab":0,"subvencion":"Oficial","sede_axo_e":"SEDE","categoria":"Tercera","depend_fun":"Dirección Provincial de Educación Primaria","cui":"609600670","periodo":"Anual 2026","matricula":142,"varones":71,"mujeres":71,"secciones":6,"turnos":" ","cue":612073,"anexo":0,"nro_escuel":5}},{"type":"Feature","id":23,"geometry":{"type":"Point","coordinates":[-58.557613456096078,-34.489442672541259]},"properties":{"OBJECTID":23,"municipio_":6756,"municipi_1":"San Isidro","establecim":7925,"establec_1":"ESCUELA DE EDUCACIÓN PRIMARIA Nº6 \"SARGENTO MAYOR BERNABE MARQUEZ\"","region_edu":"Región VI","clave":"0096PP0006","cueanexo":61215000,"modalidad":"Educación Común","nivel":"Nivel Primario","direccion":"BLANCO ENCALADA - 693","telefono":"11-4765-3533","rpv":" ","email":"esc6si@yahoo.com.ar","sector":"Estatal","dependenci":"Oficial","tipo_organ":"ESCUELA DE EDUCACIÓN PRIMARIA","area":"CONURBANO","ambito":"Urbano","desfavorab":0,"subvencion":"Oficial","sede_axo_e":"SEDE","categoria":"Primera","depend_fun":"Dirección Provincial de Educación Primaria","cui":"609600689","periodo":"Anual 2026","matricula":297,"varones":160,"mujeres":137,"secciones":18,"turnos":" ","cue":612150,"anexo":0,"nro_escuel":6}},{"type":"Feature","id":24,"geometry":{"type":"Point","coordinates":[-58.566443048507836,-34.516207207996217]},"properties":{"OBJECTID":24,"municipio_":6756,"municipi_1":"San Isidro","establecim":7926,"establec_1":"ESCUELA DE EDUCACIÓN PRIMARIA Nº7 \"MARCELINO UGARTE\"","region_edu":"Región VI","clave":"0096PP0007","cueanexo":61211800,"modalidad":"Educación Común","nivel":"Nivel Primario","direccion":"GORRITI E/ DEAN FUNES Y CASTRO - 2818","telefono":"11-4508-4477","rpv":" ","email":"ep7sanisidro@gmail.com","sector":"Estatal","dependenci":"Oficial","tipo_organ":"ESCUELA DE EDUCACIÓN PRIMARIA","area":"CONURBANO","ambito":"Urbano","desfavorab":0,"subvencion":"Oficial","sede_axo_e":"SEDE","categoria":"Primera","depend_fun":"Dirección Provincial de Educación Primaria","cui":"609600691","periodo":"Anual 2026","matricula":388,"varones":195,"mujeres":193,"secciones":18,"turnos":" ","cue":612118,"anexo":0,"nro_escuel":7}},{"type":"Feature","id":25,"geometry":{"type":"Point","coordinates":[-58.505625581255515,-34.482612276635223]},"properties":{"OBJECTID":25,"municipio_":6756,"municipi_1":"San Isidro","establecim":7927,"establec_1":"ESCUELA DE EDUCACIÓN PRIMARIA Nº8 \"SGTO JUAN BAUTISTA CABRAL\"","region_edu":"Región VI","clave":"0096PP0008","cueanexo":61213300,"modalidad":"Educación Común","nivel":"Nivel Primario","direccion":"AVDA. STA. FE E/ EZPELETA Y ENTRE RIOS - 1049","telefono":"11-4792-4236","rpv":"76544","email":"escuela008@gmail.com","sector":"Estatal","dependenci":"Oficial","tipo_organ":"ESCUELA DE EDUCACIÓN PRIMARIA","area":"CONURBANO","ambito":"Urbano","desfavorab":0,"subvencion":"Oficial","sede_axo_e":"SEDE","categoria":"Segunda","depend_fun":"Dirección Provincial de Educación Primaria","cui":"609600555","periodo":"Anual 2026","matricula":149,"varones":74,"mujeres":75,"secciones":9,"turnos":" ","cue":612133,"anexo":0,"nro_escuel":8}},{"type":"Feature","id":26,"geometry":{"type":"Point","coordinates":[-58.510675572219839,-34.491484690266191]},"properties":{"OBJECTID":26,"municipio_":6756,"municipi_1":"San Isidro","establecim":7928,"establec_1":"ESCUELA DE EDUCACIÓN PRIMARIA Nº9 \"TTE. GRAL. BARTOLOME MITRE\"","region_edu":"Región VI","clave":"0096PP0009","cueanexo":61226900,"modalidad":"Educación Común","nivel":"Nivel Primario","direccion":"CORDOBA - 763","telefono":"11-4792-0500","rpv":"76542","email":"escuelaprimarian.9@gmail.com","sector":"Estatal","dependenci":"Oficial","tipo_organ":"ESCUELA DE EDUCACIÓN PRIMARIA","area":"CONURBANO","ambito":"Urbano","desfavorab":0,"subvencion":"Oficial","sede_axo_e":"SEDE","categoria":"Primera","depend_fun":"Dirección Provincial de Educación Primaria","cui":"609600708","periodo":"Anual 2026","matricula":178,"varones":91,"mujeres":87,"secciones":12,"turnos":" ","cue":612269,"anexo":0,"nro_escuel":9}},{"type":"Feature","id":27,"geometry":{"type":"Point","coordinates":[-58.498801151451914,-34.491960185214339]},"properties":{"OBJECTID":27,"municipio_":6756,"municipi_1":"San Isidro","establecim":7929,"establec_1":"ESCUELA DE EDUCACIÓN PRIMARIA Nº10 \"JULIO ARGENTINO ROCA\"","region_edu":"Región VI","clave":"0096PP0010","cueanexo":61225200,"modalidad":"Educación Común","nivel":"Nivel Primario","direccion":"AVENIDA SANTA FE - 2304","telefono":"11-4792-6166","rpv":"76546","email":"primariaescuela10@gmailcom","sector":"Estatal","dependenci":"Oficial","tipo_organ":"ESCUELA DE EDUCACIÓN PRIMARIA","area":"CONURBANO","ambito":"Urbano","desfavorab":0,"subvencion":"Oficial","sede_axo_e":"SEDE","categoria":"Primera","depend_fun":"Dirección Provincial de Educación Primaria","cui":"609600207","periodo":"Anual 2026","matricula":162,"varones":69,"mujeres":93,"secciones":12,"turnos":" ","cue":612252,"anexo":0,"nro_escuel":10}},{"type":"Feature","id":28,"geometry":{"type":"Point","coordinates":[-58.52209381098055,-34.466139722969785]},"properties":{"OBJECTID":28,"municipio_":6756,"municipi_1":"San Isidro","establecim":7930,"establec_1":"ESCUELA DE EDUCACIÓN PRIMARIA Nº11 \"GENERAL MANUEL BELGRANO\"","region_edu":"Región VI","clave":"0096PP0011","cueanexo":61234100,"modalidad":"Educación Común","nivel":"Nivel Primario","direccion":"FRANCIA E/ GARIBALDI Y AV. CENTENARIO - 98","telefono":"11-4743-3691","rpv":"76522","email":"primaria11sanisidro@gmail.com","sector":"Estatal","dependenci":"Oficial","tipo_organ":"ESCUELA DE EDUCACIÓN PRIMARIA","area":"CONURBANO","ambito":"Urbano","desfavorab":0,"subvencion":"Oficial","sede_axo_e":"SEDE","categoria":"Primera","depend_fun":"Dirección Provincial de Educación Primaria","cui":"609600712","periodo":"Anual 2026","matricula":158,"varones":65,"mujeres":93,"secciones":7,"turnos":" ","cue":612341,"anexo":0,"nro_escuel":11}},{"type":"Feature","id":29,"geometry":{"type":"Point","coordinates":[-58.545174344720181,-34.522376816237056]},"properties":{"OBJECTID":29,"municipio_":6756,"municipi_1":"San Isidro","establecim":7931,"establec_1":"ESCUELA DE EDUCACIÓN PRIMARIA Nº12 \"DOMINGO FAUSTINO SARMIENTO\"","region_edu":"Región VI","clave":"0096PP0012","cueanexo":61231600,"modalidad":"Educación Común","nivel":"Nivel Primario","direccion":"AVENIDA DE MAYO ESQ. VERTIZ - 1498","telefono":"11-4766-6900","rpv":"76541","email":"epb_12_@hotmail.com","sector":"Estatal","dependenci":"Oficial","tipo_organ":"ESCUELA DE EDUCACIÓN PRIMARIA","area":"CONURBANO","ambito":"Urbano","desfavorab":0,"subvencion":"Oficial","sede_axo_e":"SEDE","categoria":"Primera","depend_fun":"Dirección Provincial de Educación Primaria","cui":"609600282","periodo":"Anual 2026","matricula":314,"varones":171,"mujeres":143,"secciones":19,"turnos":" ","cue":612316,"anexo":0,"nro_escuel":12}},{"type":"Feature","id":30,"geometry":{"type":"Point","coordinates":[-58.560651870487391,-34.506860838157138]},"properties":{"OBJECTID":30,"municipio_":6756,"municipi_1":"San Isidro","establecim":7932,"establec_1":"ESCUELA DE EDUCACIÓN PRIMARIA Nº13 \"CARLOS PELLEGRINI\"","region_edu":"Región VI","clave":"0096PP0013","cueanexo":61216700,"modalidad":"Educación Común","nivel":"Nivel Primario","direccion":"INDEPENDENCIA E/ BOGADO Y PLUMERILLO - 350","telefono":"11-4735-1010","rpv":"76702","email":"ep13carlospelegrini@gmail.com","sector":"Estatal","dependenci":"Oficial","tipo_organ":"ESCUELA DE EDUCACIÓN PRIMARIA","area":"CONURBANO","ambito":"Urbano","desfavorab":0,"subvencion":"Oficial","sede_axo_e":"SEDE","categoria":"Segunda","depend_fun":"Dirección Provincial de Educación Primaria","cui":"609600604","periodo":"Anual 2026","matricula":128,"varones":53,"mujeres":75,"secciones":6,"turnos":" ","cue":612167,"anexo":0,"nro_escuel":13}},{"type":"Feature","id":31,"geometry":{"type":"Point","coordinates":[-58.517309787316776,-34.501593410007843]},"properties":{"OBJECTID":31,"municipio_":6756,"municipi_1":"San Isidro","establecim":7933,"establec_1":"ESCUELA DE EDUCACIÓN PRIMARIA Nº14 \"PTE.RIVADAVIA\"","region_edu":"Región VI","clave":"0096PP0014","cueanexo":61220000,"modalidad":"Educación Común","nivel":"Nivel Primario","direccion":"EDISON ESQ. FLEMING - 1596","telefono":"11-4792-7369","rpv":"76547","email":"ep14martinez@gmail.co","sector":"Estatal","dependenci":"Oficial","tipo_organ":"ESCUELA DE EDUCACIÓN PRIMARIA","area":"CONURBANO","ambito":"Urbano","desfavorab":0,"subvencion":"Oficial","sede_axo_e":"SEDE","categoria":"Primera","depend_fun":"Dirección Provincial de Educación Primaria","cui":"609602293","periodo":"Anual 2026","matricula":125,"varones":72,"mujeres":53,"secciones":6,"turnos":" ","cue":612200,"anexo":0,"nro_escuel":14}},{"type":"Feature","id":32,"geometry":{"type":"Point","coordinates":[-58.58125696543658,-34.478852525923287]},"properties":{"OBJECTID":32,"municipio_":6756,"municipi_1":"San Isidro","establecim":7934,"establec_1":"ESCUELA DE EDUCACIÓN PRIMARIA Nº 15 \"UNA ESCUELA PARA LA ESPERANZA\"","region_edu":"Región VI","clave":"0096PP0015","cueanexo":61309800,"modalidad":"Educación Común","nivel":"Nivel Primario","direccion":"MONTEVIDEO - 2760","telefono":"11-4719-6319","rpv":" ","email":"primaria15sanisidro@abc.gob.ar","sector":"Estatal","dependenci":"Oficial","tipo_organ":"ESCUELA DE EDUCACIÓN PRIMARIA","area":"CONURBANO","ambito":"Urbano","desfavorab":0,"subvencion":"Oficial","sede_axo_e":"SEDE","categoria":"Segunda","depend_fun":"Dirección Provincial de Educación Primaria","cui":"609602319","periodo":"Anual 2026","matricula":187,"varones":100,"mujeres":87,"secciones":12,"turnos":" ","cue":613098,"anexo":0,"nro_escuel":15}},{"type":"Feature","id":33,"geometry":{"type":"Point","coordinates":[-58.569603645691643,-34.509913706452323]},"properties":{"OBJECTID":33,"municipio_":6756,"municipi_1":"San Isidro","establecim":7935,"establec_1":"ESCUELA DE EDUCACIÓN PRIMARIA Nº16 \"SAN JUAN BAUTISTA DE LA SALLE\"","region_edu":"Región VI","clave":"0096PP0016","cueanexo":61209000,"modalidad":"Educación Común","nivel":"Nivel Primario","direccion":"BULNES E/ GASCÓN Y MEDRANO - 206","telefono":"11-4587-4000","rpv":"76800","email":"primaria16sanisidro@abc.gob.ar","sector":"Estatal","dependenci":"Oficial","tipo_organ":"ESCUELA DE EDUCACIÓN PRIMARIA","area":"CONURBANO","ambito":"Urbano","desfavorab":0,"subvencion":"Oficial","sede_axo_e":"SEDE","categoria":"Primera","depend_fun":"Dirección Provincial de Educación Primaria","cui":"609600720","periodo":"Anual 2026","matricula":452,"varones":222,"mujeres":230,"secciones":24,"turnos":" ","cue":612090,"anexo":0,"nro_escuel":16}},{"type":"Feature","id":34,"geometry":{"type":"Point","coordinates":[-58.584852197770658,-34.494649542142611]},"properties":{"OBJECTID":34,"municipio_":6756,"municipi_1":"San Isidro","establecim":7936,"establec_1":"ESCUELA DE EDUCACIÓN PRIMARIA Nº17 \"REPUBLICA DEL PARAGUAY\"","region_edu":"Región VI","clave":"0096PP0017","cueanexo":61212200,"modalidad":"Educación Común","nivel":"Nivel Primario","direccion":"B. DE IRIGOYEN E/ SEGUROLA Y CAZON - 2100","telefono":"11-4765-4115","rpv":"76535","email":"ep17sanisidro@gmail.com","sector":"Estatal","dependenci":"Oficial","tipo_organ":"ESCUELA DE EDUCACIÓN PRIMARIA","area":"CONURBANO","ambito":"Urbano","desfavorab":0,"subvencion":"Oficial","sede_axo_e":"SEDE","categoria":"Primera","depend_fun":"Dirección Provincial de Educación Primaria","cui":"609600085","periodo":"Anual 2026","matricula":181,"varones":104,"mujeres":77,"secciones":12,"turnos":" ","cue":612122,"anexo":0,"nro_escuel":17}},{"type":"Feature","id":35,"geometry":{"type":"Point","coordinates":[-58.576379854746449,-34.50039861120689]},"properties":{"OBJECTID":35,"municipio_":6756,"municipi_1":"San Isidro","establecim":7937,"establec_1":"ESCUELA DE EDUCACIÓN PRIMARIA Nº18 \"9 DE JULIO\"","region_edu":"Región VI","clave":"0096PP0018","cueanexo":61230000,"modalidad":"Educación Común","nivel":"Nivel Primario","direccion":"LAINEZ E/ BLANDENGUES Y B. DE IRIGOYEN - 2030","telefono":"11-4737-5976","rpv":" ","email":"primaria18sanisidro@abc.gob.ar","sector":"Estatal","dependenci":"Oficial","tipo_organ":"ESCUELA DE EDUCACIÓN PRIMARIA","area":"CONURBANO","ambito":"Urbano","desfavorab":0,"subvencion":"Oficial","sede_axo_e":"SEDE","categoria":"Primera","depend_fun":"Dirección Provincial de Educación Primaria","cui":"609600731","periodo":"Anual 2026","matricula":418,"varones":234,"mujeres":184,"secciones":24,"turnos":" ","cue":612300,"anexo":0,"nro_escuel":18}},{"type":"Feature","id":36,"geometry":{"type":"Point","coordinates":[-58.554115933303649,-34.472660833031]},"properties":{"OBJECTID":36,"municipio_":6756,"municipi_1":"San Isidro","establecim":7938,"establec_1":"ESCUELA DE EDUCACIÓN PRIMARIA Nº19 \"PABLO PIZZURNO\"","region_edu":"Región VI","clave":"0096PP0019","cueanexo":61226200,"modalidad":"Educación Común","nivel":"Nivel Primario","direccion":"JULIAN NAVARRO,  ESQUINA ESNAOLA - 2693","telefono":"11-4732-2372","rpv":"76525","email":"ep19beccar@gmail.com","sector":"Estatal","dependenci":"Oficial","tipo_organ":"ESCUELA DE EDUCACIÓN PRIMARIA","area":"CONURBANO","ambito":"Urbano","desfavorab":0,"subvencion":"Oficial","sede_axo_e":"SEDE","categoria":"Primera","depend_fun":"Dirección Provincial de Educación Primaria","cui":"609600173","periodo":"Anual 2026","matricula":167,"varones":71,"mujeres":96,"secciones":8,"turnos":" ","cue":612262,"anexo":0,"nro_escuel":19}},{"type":"Feature","id":37,"geometry":{"type":"Point","coordinates":[-58.546500637894098,-34.509012373522182]},"properties":{"OBJECTID":37,"municipio_":6756,"municipi_1":"San Isidro","establecim":7939,"establec_1":"ESCUELA DE EDUCACIÓN PRIMARIA Nº20 \"HIPOLITO YRIGOYEN\"","region_edu":"Región VI","clave":"0096PP0020","cueanexo":61232800,"modalidad":"Educación Común","nivel":"Nivel Primario","direccion":"MIGUEL CANE E/ MORENO Y BOEDO - 1247","telefono":"11-4763-2321","rpv":"84201","email":"primaria20sanisidro@abc.gob.ar","sector":"Estatal","dependenci":"Oficial","tipo_organ":"ESCUELA DE EDUCACIÓN PRIMARIA","area":"CONURBANO","ambito":"Urbano","desfavorab":0,"subvencion":"Oficial","sede_axo_e":"SEDE","categoria":"Primera","depend_fun":"Dirección Provincial de Educación Primaria","cui":"609600749","periodo":"Anual 2026","matricula":396,"varones":210,"mujeres":186,"secciones":20,"turnos":" ","cue":612328,"anexo":0,"nro_escuel":20}},{"type":"Feature","id":38,"geometry":{"type":"Point","coordinates":[-58.560213373648253,-34.523364936442647]},"properties":{"OBJECTID":38,"municipio_":6756,"municipi_1":"San Isidro","establecim":7940,"establec_1":"ESCUELA DE EDUCACIÓN PRIMARIA Nº21 \"PAULA ALBARRACIN\"","region_edu":"Región VI","clave":"0096PP0021","cueanexo":61231400,"modalidad":"Educación Común","nivel":"Nivel Primario","direccion":"FRAY CAYETANO RODRÍGUEZ ESQ. CESPEDES - 820","telefono":"-","rpv":" ","email":"primaria21sanisidro@abc.gob.ar","sector":"Estatal","dependenci":"Oficial","tipo_organ":"ESCUELA DE EDUCACIÓN PRIMARIA","area":"CONURBANO","ambito":"Urbano","desfavorab":0,"subvencion":"Oficial","sede_axo_e":"SEDE","categoria":"Primera","depend_fun":"Dirección Provincial de Educación Primaria","cui":"609602240","periodo":"Anual 2026","matricula":218,"varones":116,"mujeres":102,"secciones":12,"turnos":" ","cue":612314,"anexo":0,"nro_escuel":21}},{"type":"Feature","id":39,"geometry":{"type":"Point","coordinates":[-58.524395515140895,-34.498486070675597]},"properties":{"OBJECTID":39,"municipio_":6756,"municipi_1":"San Isidro","establecim":7941,"establec_1":"ESCUELA DE EDUCACIÓN PRIMARIA Nº22 \"MARIANO MORENO\"","region_edu":"Región VI","clave":"0096PP0022","cueanexo":61234600,"modalidad":"Educación Común","nivel":"Nivel Primario","direccion":"CÓRDOBA ESQUINA LIMA - 1950","telefono":"11-4792-8965","rpv":"76549","email":"primaria22sanisidro@abc.gob.ar","sector":"Estatal","dependenci":"Oficial","tipo_organ":"ESCUELA DE EDUCACIÓN PRIMARIA","area":"CONURBANO","ambito":"Urbano","desfavorab":0,"subvencion":"Oficial","sede_axo_e":"SEDE","categoria":"Primera","depend_fun":"Dirección Provincial de Educación Primaria","cui":"609600754","periodo":"Anual 2026","matricula":234,"varones":119,"mujeres":115,"secciones":12,"turnos":" ","cue":612346,"anexo":0,"nro_escuel":22}},{"type":"Feature","id":40,"geometry":{"type":"Point","coordinates":[-58.537320870161977,-34.466050226037055]},"properties":{"OBJECTID":40,"municipio_":6756,"municipi_1":"San Isidro","establecim":7942,"establec_1":"ESCUELA DE EDUCACIÓN PRIMARIA Nº23 \"CONGRESO DE TUCUMAN\"","region_edu":"Región VI","clave":"0096PP0023","cueanexo":61223100,"modalidad":"Educación Común","nivel":"Nivel Primario","direccion":"PAMPA - 1881","telefono":"11-4747-0177","rpv":" ","email":"primaria23sanisidro@abc.gob.ar","sector":"Estatal","dependenci":"Oficial","tipo_organ":"ESCUELA DE EDUCACIÓN PRIMARIA","area":"CONURBANO","ambito":"Urbano","desfavorab":0,"subvencion":"Oficial","sede_axo_e":"SEDE","categoria":"Primera","depend_fun":"Dirección Provincial de Educación Primaria","cui":"609600765","periodo":"Anual 2026","matricula":325,"varones":174,"mujeres":151,"secciones":21,"turnos":" ","cue":612231,"anexo":0,"nro_escuel":23}},{"type":"Feature","id":41,"geometry":{"type":"Point","coordinates":[-58.584782576754492,-34.490295928614159]},"properties":{"OBJECTID":41,"municipio_":6756,"municipi_1":"San Isidro","establecim":7943,"establec_1":"ESCUELA DE EDUCACIÓN PRIMARIA Nº24 \"JOSÉ MANUEL ESTRADA\"","region_edu":"Región VI","clave":"0096PP0024","cueanexo":61233600,"modalidad":"Educación Común","nivel":"Nivel Primario","direccion":"PANAMERICANA Y CAMINO MORON - S/N","telefono":"11-4737-7715","rpv":"76552","email":"primaria24sanisidro@abc.gob.ar","sector":"Estatal","dependenci":"Oficial","tipo_organ":"ESCUELA DE EDUCACIÓN PRIMARIA","area":"CONURBANO","ambito":"Urbano","desfavorab":0,"subvencion":"Oficial","sede_axo_e":"SEDE","categoria":"Primera","depend_fun":"Dirección Provincial de Educación Primaria","cui":"609600187","periodo":"Anual 2026","matricula":283,"varones":151,"mujeres":132,"secciones":15,"turnos":" ","cue":612336,"anexo":0,"nro_escuel":24}},{"type":"Feature","id":42,"geometry":{"type":"Point","coordinates":[-58.540375550591136,-34.473519132501906]},"properties":{"OBJECTID":42,"municipio_":6756,"municipi_1":"San Isidro","establecim":7944,"establec_1":"ESCUELA DE EDUCACIÓN PRIMARIA Nº25 \"MARIQUITA SANCHEZ DE THOMPSON\"","region_edu":"Región VI","clave":"0096PP0025","cueanexo":61215100,"modalidad":"Educación Común","nivel":"Nivel Primario","direccion":"TOMKINSON ESQ. PUEYRREDON - 1651","telefono":"11-4723-8567","rpv":"76566","email":"primaria25sanisidro@abc.gob.ar","sector":"Estatal","dependenci":"Oficial","tipo_organ":"ESCUELA DE EDUCACIÓN PRIMARIA","area":"CONURBANO","ambito":"Urbano","desfavorab":1,"subvencion":"Oficial","sede_axo_e":"SEDE","categoria":"Primera","depend_fun":"Dirección Provincial de Educación Primaria","cui":"609600783","periodo":"Anual 2026","matricula":130,"varones":69,"mujeres":61,"secciones":7,"turnos":" ","cue":612151,"anexo":0,"nro_escuel":25}},{"type":"Feature","id":43,"geometry":{"type":"Point","coordinates":[-58.506449884554513,-34.463172279477078]},"properties":{"OBJECTID":43,"municipio_":6756,"municipi_1":"San Isidro","establecim":7945,"establec_1":"ESCUELA DE EDUCACIÓN PRIMARIA Nº26 \"BRIGADIER GENERAL JUAN MARTÍN DE PUEYRREDÓN\"","region_edu":"Región VI","clave":"0096PP0026","cueanexo":61218100,"modalidad":"Educación Común","nivel":"Nivel Primario","direccion":"MAGALLANES ESQ. GUERRICO - 1015","telefono":"11-4897-3058","rpv":" ","email":"primaria26sanisidro@abc.gob.ar","sector":"Estatal","dependenci":"Oficial","tipo_organ":"ESCUELA DE EDUCACIÓN PRIMARIA","area":"CONURBANO","ambito":"Urbano","desfavorab":0,"subvencion":"Oficial","sede_axo_e":"SEDE","categoria":"Segunda","depend_fun":"Dirección Provincial de Educación Primaria","cui":"609602264","periodo":"Anual 2026","matricula":82,"varones":38,"mujeres":44,"secciones":6,"turnos":" ","cue":612181,"anexo":0,"nro_escuel":26}},{"type":"Feature","id":44,"geometry":{"type":"Point","coordinates":[-58.559954498401339,-34.503295526267493]},"properties":{"OBJECTID":44,"municipio_":6756,"municipi_1":"San Isidro","establecim":7946,"establec_1":"ESCUELA DE EDUCACIÓN PRIMARIA Nº27 \"JORGE J. HALL\"","region_edu":"Región VI","clave":"0096PP0027","cueanexo":61217000,"modalidad":"Educación Común","nivel":"Nivel Primario","direccion":"YERBAL E/ AV. ROLON Y SALGUERO - 60","telefono":"11-4763-6764","rpv":" ","email":"primaria27sanisidro@abc.gob.ar","sector":"Estatal","dependenci":"Oficial","tipo_organ":"ESCUELA DE EDUCACIÓN PRIMARIA","area":"CONURBANO","ambito":"Urbano","desfavorab":0,"subvencion":"Oficial","sede_axo_e":"SEDE","categoria":"Segunda","depend_fun":"Dirección Provincial de Educación Primaria","cui":"609600796","periodo":"Anual 2026","matricula":133,"varones":63,"mujeres":70,"secciones":6,"turnos":" ","cue":612170,"anexo":0,"nro_escuel":27}},{"type":"Feature","id":45,"geometry":{"type":"Point","coordinates":[-58.584549700907928,-34.490284090838088]},"properties":{"OBJECTID":45,"municipio_":6756,"municipi_1":"San Isidro","establecim":7947,"establec_1":"ESCUELA DE EDUCACIÓN PRIMARIA Nº28 \"ANTARTIDA ARGENTINA\"","region_edu":"Región VI","clave":"0096PP0028","cueanexo":61227700,"modalidad":"Educación Común","nivel":"Nivel Primario","direccion":"PANAMERICANA Y CAMINO MORON - S/N","telefono":"11-4710-1670","rpv":"76578","email":"primaria28sanisidro@abc.gob.ar","sector":"Estatal","dependenci":"Oficial","tipo_organ":"ESCUELA DE EDUCACIÓN PRIMARIA","area":"CONURBANO","ambito":"Urbano","desfavorab":0,"subvencion":"Oficial","sede_axo_e":"SEDE","categoria":"Segunda","depend_fun":"Dirección Provincial de Educación Primaria","cui":"609600187","periodo":"Anual 2026","matricula":81,"varones":41,"mujeres":40,"secciones":6,"turnos":" ","cue":612277,"anexo":0,"nro_escuel":28}},{"type":"Feature","id":46,"geometry":{"type":"Point","coordinates":[-58.534790118569049,-34.51572562193985]},"properties":{"OBJECTID":46,"municipio_":6756,"municipi_1":"San Isidro","establecim":7948,"establec_1":"ESCUELA DE EDUCACIÓN PRIMARIA Nº29 \"JUANA MANSO\"","region_edu":"Región VI","clave":"0096PP0029","cueanexo":61231700,"modalidad":"Educación Común","nivel":"Nivel Primario","direccion":"PICHINCHA - 2211","telefono":"11-4735-2953","rpv":" ","email":"epn29si@gmail.com","sector":"Estatal","dependenci":"Oficial","tipo_organ":"ESCUELA DE EDUCACIÓN PRIMARIA","area":"CONURBANO","ambito":"Urbano","desfavorab":0,"subvencion":"Oficial","sede_axo_e":"SEDE","categoria":"Primera","depend_fun":"Dirección Provincial de Educación Primaria","cui":"609600806","periodo":"Anual 2026","matricula":104,"varones":59,"mujeres":45,"secciones":10,"turnos":" ","cue":612317,"anexo":0,"nro_escuel":29}},{"type":"Feature","id":47,"geometry":{"type":"Point","coordinates":[-58.552399095142107,-34.515076587514443]},"properties":{"OBJECTID":47,"municipio_":6756,"municipi_1":"San Isidro","establecim":7949,"establec_1":"ESCUELA DE EDUCACIÓN PRIMARIA Nº30 \"JOSÉ HERNANDEZ\"","region_edu":"Región VI","clave":"0096PP0030","cueanexo":61231200,"modalidad":"Educación Común","nivel":"Nivel Primario","direccion":"P.MORENO E/ RODRIGUEZ E INDEPENDENCIA - 1980","telefono":"11-4763-4774","rpv":"76589","email":"ep30josehernandezsi@gmail.com","sector":"Estatal","dependenci":"Oficial","tipo_organ":"ESCUELA DE EDUCACIÓN PRIMARIA","area":"CONURBANO","ambito":"Urbano","desfavorab":0,"subvencion":"Oficial","sede_axo_e":"SEDE","categoria":"Primera","depend_fun":"Dirección Provincial de Educación Primaria","cui":"609600593","periodo":"Anual 2026","matricula":149,"varones":84,"mujeres":65,"secciones":12,"turnos":" ","cue":612312,"anexo":0,"nro_escuel":30}},{"type":"Feature","id":48,"geometry":{"type":"Point","coordinates":[-58.549221566422091,-34.46689357427897]},"properties":{"OBJECTID":48,"municipio_":6756,"municipi_1":"San Isidro","establecim":7950,"establec_1":"ESCUELA DE EDUCACIÓN PRIMARIA Nº31 \"RICARDO GUTIERREZ\"","region_edu":"Región VI","clave":"0096PP0031","cueanexo":61234200,"modalidad":"Educación Común","nivel":"Nivel Primario","direccion":"C.ONELLI E/ M. GARCÍA Y GUIDO - 2468","telefono":"11-4723-1524","rpv":" ","email":"primaria31sanisidro@abc.gob.ar","sector":"Estatal","dependenci":"Oficial","tipo_organ":"ESCUELA DE EDUCACIÓN PRIMARIA","area":"CONURBANO","ambito":"Urbano","desfavorab":0,"subvencion":"Oficial","sede_axo_e":"SEDE","categoria":"Primera","depend_fun":"Dirección Provincial de Educación Primaria","cui":"609600615","periodo":"Anual 2026","matricula":117,"varones":49,"mujeres":68,"secciones":7,"turnos":" ","cue":612342,"anexo":0,"nro_escuel":31}},{"type":"Feature","id":49,"geometry":{"type":"Point","coordinates":[-58.577337414190254,-34.495480195554535]},"properties":{"OBJECTID":49,"municipio_":6756,"municipi_1":"San Isidro","establecim":7951,"establec_1":"ESCUELA DE EDUCACIÓN PRIMARIA Nº33 \"GREGORIA MATORRAS DE SAN MARTIN\"","region_edu":"Región VI","clave":"0096PP0033","cueanexo":61230100,"modalidad":"Educación Común","nivel":"Nivel Primario","direccion":"BETBEDER ESQ. TIRADENTES - 1708","telefono":"11-4710-2435","rpv":" ","email":"primaria33sanisidro@abc.gob.ar","sector":"Estatal","dependenci":"Oficial","tipo_organ":"ESCUELA DE EDUCACIÓN PRIMARIA","area":"CONURBANO","ambito":"Urbano","desfavorab":0,"subvencion":"Oficial","sede_axo_e":"SEDE","categoria":"Segunda","depend_fun":"Dirección Provincial de Educación Primaria","cui":"609600139","periodo":"Anual 2026","matricula":158,"varones":66,"mujeres":92,"secciones":7,"turnos":" ","cue":612301,"anexo":0,"nro_escuel":33}},{"type":"Feature","id":50,"geometry":{"type":"Point","coordinates":[-58.530764220692163,-34.470668767249776]},"properties":{"OBJECTID":50,"municipio_":6756,"municipi_1":"San Isidro","establecim":7952,"establec_1":"ESCUELA DE EDUCACIÓN PRIMARIA Nº34 \"GUAYAQUIL\"","region_edu":"Región VI","clave":"0096PP0034","cueanexo":61208600,"modalidad":"Educación Común","nivel":"Nivel Primario","direccion":"LINIERS - 800","telefono":"11-4743-6078","rpv":"76570","email":"primaria34sanisidro@abc.gob.ar","sector":"Estatal","dependenci":"Oficial","tipo_organ":"ESCUELA DE EDUCACIÓN PRIMARIA","area":"CONURBANO","ambito":"Urbano","desfavorab":0,"subvencion":"Oficial","sede_axo_e":"SEDE","categoria":"Primera","depend_fun":"Dirección Provincial de Educación Primaria","cui":"609600810","periodo":"Anual 2026","matricula":165,"varones":92,"mujeres":73,"secciones":12,"turnos":" ","cue":612086,"anexo":0,"nro_escuel":34}},{"type":"Feature","id":51,"geometry":{"type":"Point","coordinates":[-58.547442043715307,-34.469317081717918]},"properties":{"OBJECTID":51,"municipio_":6756,"municipi_1":"San Isidro","establecim":10271,"establec_1":"ESCUELA MUNICIPAL MALVINAS ARGENTINAS","region_edu":"Región VI","clave":"3096PP1335","cueanexo":61215300,"modalidad":"Educación Común","nivel":"Nivel Primario","direccion":"JULIAN NAVARRO - 2010","telefono":"11-4512-3137","rpv":" ","email":"malvinasargentinas1@gmail.com","sector":"Estatal","dependenci":"Municipal","tipo_organ":"ESCUELA DE EDUCACIÓN PRIMARIA","area":"CONURBANO","ambito":"Urbano","desfavorab":0,"subvencion":"Subvención Total 100%","sede_axo_e":"SEDE","categoria":"Primera","depend_fun":"Dirección de Educación de Gestión Privada","cui":"609600950","periodo":"Anual 2026","matricula":312,"varones":151,"mujeres":161,"secciones":13,"turnos":" ","cue":612153,"anexo":0,"nro_escuel":1335}},{"type":"Feature","id":52,"geometry":{"type":"Point","coordinates":[-58.566878323076082,-34.512180402703393]},"properties":{"OBJECTID":52,"municipio_":6756,"municipi_1":"San Isidro","establecim":16151,"establec_1":"CENTRO DE ALFABETIZACIÓN Nº5","region_edu":"Región VI","clave":"0096DA0005","cueanexo":61436100,"modalidad":"Educación de Jóvenes y Adultos","nivel":"Nivel Primario","direccion":"CAMINO MORÓN Y COLECTORA - S/N","telefono":"1636-4792-6166","rpv":" ","email":"epa703sanisidro@abc.gob.ar","sector":"Estatal","dependenci":"Oficial","tipo_organ":"CENTRO DE ALFABETIZACIÓN","area":"CONURBANO","ambito":"Urbano","desfavorab":0,"subvencion":"Oficial","sede_axo_e":"SEDE","categoria":"S/Datos","depend_fun":"Dirección de Educación de Jóvenes, Adultos y Adultos Mayores","cui":"609600037","periodo":"Anual 2026","matricula":10,"varones":2,"mujeres":8,"secciones":1,"turnos":" ","cue":614361,"anexo":0,"nro_escuel":5}},{"type":"Feature","id":53,"geometry":{"type":"Point","coordinates":[-58.544036774277686,-34.460914361508515]},"properties":{"OBJECTID":53,"municipio_":6756,"municipi_1":"San Isidro","establecim":16154,"establec_1":"CENTRO DE ALFABETIZACION Nº9","region_edu":"Región VI","clave":"0096DA0009","cueanexo":61436400,"modalidad":"Educación de Jóvenes y Adultos","nivel":"Nivel Primario","direccion":"CAMINO DE LA RIVERA - 428","telefono":"1636-4790-6584","rpv":" ","email":"epa703sanisidro@abc.gob.ar","sector":"Estatal","dependenci":"Oficial","tipo_organ":"CENTRO DE ALFABETIZACIÓN","area":"CONURBANO","ambito":"Urbano","desfavorab":0,"subvencion":"Oficial","sede_axo_e":"SEDE","categoria":"S/Datos","depend_fun":"Dirección de Educación de Jóvenes, Adultos y Adultos Mayores","cui":"609600044","periodo":"Anual 2026","matricula":10,"varones":3,"mujeres":7,"secciones":1,"turnos":" ","cue":614364,"anexo":0,"nro_escuel":9}},{"type":"Feature","id":54,"geometry":{"type":"Point","coordinates":[-58.578082086119366,-34.501708127528047]},"properties":{"OBJECTID":54,"municipio_":6756,"municipi_1":"San Isidro","establecim":16172,"establec_1":"CENTRO DE ALFABETIZACION Nº32","region_edu":"Región VI","clave":"0096DA0032","cueanexo":61438600,"modalidad":"Educación de Jóvenes y Adultos","nivel":"Nivel Primario","direccion":"LAINEZ - 2257","telefono":"1636-4792-6166","rpv":" ","email":"epa703sanisidro@abc.gob.ar","sector":"Estatal","dependenci":"Oficial","tipo_organ":"CENTRO DE ALFABETIZACIÓN","area":"CONURBANO","ambito":"Urbano","desfavorab":0,"subvencion":"Oficial","sede_axo_e":"SEDE","categoria":"S/Datos","depend_fun":"Dirección de Educación de Jóvenes, Adultos y Adultos Mayores","cui":"609600063","periodo":"Anual 2026","matricula":10,"varones":1,"mujeres":9,"secciones":1,"turnos":" ","cue":614386,"anexo":0,"nro_escuel":32}},{"type":"Feature","id":55,"geometry":{"type":"Point","coordinates":[-58.582508250655223,-34.493240169598096]},"properties":{"OBJECTID":55,"municipio_":6756,"municipi_1":"San Isidro","establecim":16175,"establec_1":"CENTRO DE ALFABETIZACION Nº36","region_edu":"Región VI","clave":"0096DA0036","cueanexo":61439200,"modalidad":"Educación de Jóvenes y Adultos","nivel":"Nivel Primario","direccion":"CAMINO REAL MORÒN - 1200","telefono":"1636-4792-6166","rpv":" ","email":"epa703sanisidro@abc.gob.ar","sector":"Estatal","dependenci":"Oficial","tipo_organ":"CENTRO DE ALFABETIZACIÓN","area":"CONURBANO","ambito":"Urbano","desfavorab":0,"subvencion":"Oficial","sede_axo_e":"SEDE","categoria":"S/Datos","depend_fun":"Dirección de Educación de Jóvenes, Adultos y Adultos Mayores","cui":"609600071","periodo":"Anual 2026","matricula":10,"varones":0,"mujeres":10,"secciones":1,"turnos":" ","cue":614392,"anexo":0,"nro_escuel":36}}]}